NORAD_CAT_ID,OBJECT_NAME,OBJECT_TYPE,EPOCH,MEAN_MOTION,ECCENTRICITY,INCLINATION,RA_OF_ASC_NODE,ARG_OF_PERICENTER,MEAN_ANOMALY,BSTAR,MEAN_MOTION_DOT,MEAN_MOTION_DDOT,TLE_LINE0,TLE_LINE1,TLE_LINE2,SEMIMAJOR_AXIS,PERIOD,APOGEE,PERIGEE,DECAYED
51814.0,STARLINK-3599,PAYLOAD,2023-01-22 23:33:20,15.08834627,0.0001545,53.2138,54.4634,102.6627,257.4537,-0.00045477,-7.517e-05,0.0,0 STARLINK-3599,1 51814U 22017AY  23022.98148775 -.00007517  00000-0 -45477-3 0  9991,2 51814  53.2138  54.4634 0001545 102.6627 257.4537 15.08834627 51843,6917.897,95.438,540.831,538.693,0.0
51814.0,STARLINK-3599,PAYLOAD,2023-01-24 00:59:31,15.08823631,0.0001469,53.2136,49.7027,100.7554,259.3604,0.00019599,2.831e-05,0.0,0 STARLINK-3599,1 51814U 22017AY  23024.04133711  .00002831  00000-0  19599-3 0  9992,2 51814  53.2136  49.7027 0001469 100.7554 259.3604 15.08823631 52005,6917.93,95.439,540.812,538.779,0.0
51814.0,STARLINK-3599,PAYLOAD,2023-01-24 08:56:27,15.08837946,0.0001647,53.2137,48.217,101.0267,259.091,0.00062281,9.637e-05,0.0,0 STARLINK-3599,1 51814U 22017AY  23024.37253742  .00009637  00000-0  62281-3 0  9992,2 51814  53.2137  48.2170 0001647 101.0267 259.0910 15.08837946 52058,6917.887,95.438,540.891,538.612,0.0
51814.0,STARLINK-3599,PAYLOAD,2023-01-25 00:50:18,15.08833951,0.0001385,53.2122,45.2415,102.9943,257.1204,0.0001986,2.874e-05,0.0,0 STARLINK-3599,1 51814U 22017AY  23025.03494060  .00002874  00000-0  19860-3 0  9997,2 51814  53.2122  45.2415 0001385 102.9943 257.1204 15.08833951 52159,6917.899,95.438,540.722,538.806,0.0
51814.0,STARLINK-3599,PAYLOAD,2023-01-25 08:47:14,15.08836251,0.0001426999999999,53.2129,43.7551,106.0123,254.1026,0.00022243,3.253e-05,0.0,0 STARLINK-3599,1 51814U 22017AY  23025.36614182  .00003253  00000-0  22243-3 0  9993,2 51814  53.2129  43.7551 0001427 106.0123 254.1026 15.08836251 52089,6917.892,95.438,540.744,538.77,0.0
51814.0,STARLINK-3599,PAYLOAD,2023-01-26 07:02:38,15.08841729,0.0001412,53.2145,39.5926,95.3181,264.7972,0.00027734,4.129e-05,0.0,0 STARLINK-3599,1 51814U 22017AY  23026.29350400  .00004129  00000-0  27734-3 0  9999,2 51814  53.2145  39.5926 0001412  95.3181 264.7972 15.08841729 52346,6917.875,95.437,540.717,538.763,0.0
51814.0,STARLINK-3599,PAYLOAD,2023-01-27 06:53:25,15.08848394,0.0001358,53.2142,35.1317,95.448,264.6667,0.00026959,4.006e-05,0.0,0 STARLINK-3599,1 51814U 22017AY  23027.28710093  .00004006  00000-0  26959-3 0  9999,2 51814  53.2142  35.1317 0001358  95.4480 264.6667 15.08848394 52379,6917.855,95.437,540.659,538.78,0.0
51814.0,STARLINK-3599,PAYLOAD,2023-01-28 03:33:26,15.08839176,0.0001254,53.2141,31.2651,100.202,259.9114,-1.8575e-05,-5.83e-06,0.0,0 STARLINK-3599,1 51814U 22017AY  23028.14822426 -.00000583  00000-0 -18575-4 0  9993,2 51814  53.2141  31.2651 0001254 100.2020 259.9114 15.08839176 52626,6917.883000000001,95.438,540.615,538.88,0.0
51814.0,STARLINK-3599,PAYLOAD,2023-01-28 08:19:35,15.08844524,0.0001177,53.2141,30.3729,93.603,266.5097,5.528e-05,5.92e-06,0.0,0 STARLINK-3599,1 51814U 22017AY  23028.34694097  .00000592  00000-0  55280-4 0  9998,2 51814  53.2141  30.3729 0001177  93.6030 266.5097 15.08844524 52539,6917.867,95.437,540.546,538.917,0.0
51814.0,STARLINK-3599,PAYLOAD,2023-01-29 09:45:45,15.08842255,0.0001155,53.2148,25.6153,90.596,269.5165,0.00021611,3.153e-05,0.0,0 STARLINK-3599,1 51814U 22017AY  23029.40677920  .00003153  00000-0  21611-3 0  9998,2 51814  53.2148  25.6153 0001155  90.5960 269.5165 15.08842255 52817,6917.873,95.437,540.538,538.939,0.0
51814.0,STARLINK-3599,PAYLOAD,2023-01-30 00:04:14,15.08835126,0.0001111,53.2149,22.9385,94.7038,265.408,7.2932e-05,8.73e-06,0.0,0 STARLINK-3599,1 51814U 22017AY  23030.00294616  .00000873  00000-0  72932-4 0  9992,2 51814  53.2149  22.9385 0001111  94.7038 265.4080 15.08835126 52909,6917.895,95.438,540.529,538.992,0.0
51814.0,STARLINK-3599,PAYLOAD,2023-01-30 09:36:32,15.08844119,0.0001096,53.2151,21.1546,94.9798,265.1319,0.00013541,1.868e-05,0.0,0 STARLINK-3599,1 51814U 22017AY  23030.40037940  .00001868  00000-0  13541-3 0  9996,2 51814  53.2151  21.1546 0001096  94.9798 265.1319 15.08844119 52969,6917.868,95.437,540.491,538.975,0.0
51814.0,STARLINK-3599,PAYLOAD,2023-01-30 22:19:38,15.08835291,0.0001243,53.215,18.7751,100.9359,259.1773,1.0228e-05,-1.25e-06,0.0,0 STARLINK-3599,1 51814U 22017AY  23030.93030886 -.00000125  00000-0  10228-4 0  9992,2 51814  53.2150  18.7751 0001243 100.9359 259.1773 15.08835291 53041,6917.895,95.438,540.62,538.9,0.0
51814.0,STARLINK-3599,PAYLOAD,2023-01-31 06:16:33,15.08841463,0.0001234,53.2152,17.2887,96.9632,263.15,6.0313e-05,6.72e-06,0.0,0 STARLINK-3599,1 51814U 22017AY  23031.26150429  .00000672  00000-0  60313-4 0  9991,2 51814  53.2152  17.2887 0001234  96.9632 263.1500 15.08841463 53091,6917.876,95.437,540.595,538.887,0.0
51814.0,STARLINK-3599,PAYLOAD,2023-02-01 07:42:43,15.08848585,0.000138,53.2146,12.531,99.4027,260.7121,0.00016269,2.303e-05,0.0,0 STARLINK-3599,1 51814U 22017AY  23032.32133887  .00002303  00000-0  16269-3 0  9991,2 51814  53.2146  12.5310 0001380  99.4027 260.7121 15.08848585 53253,6917.854,95.437,540.674,538.764,0.0
51814.0,STARLINK-3599,PAYLOAD,2023-02-02 04:22:45,15.08836965,0.0001721,53.2152,8.6628,109.6619,250.4559,4.0858e-05,3.62e-06,0.0,0 STARLINK-3599,1 51814U 22017AY  23033.18246581  .00000362  00000-0  40858-4 0  9997,2 51814  53.2152   8.6628 0001721 109.6619 250.4559 15.08836965 53382,6917.89,95.438,540.945,538.564,0.0
51814.0,STARLINK-3599,PAYLOAD,2023-02-02 07:33:31,15.08843355,0.0001473,53.2153,8.0709,90.7245,269.3916,0.00014422,2.008e-05,0.0,0 STARLINK-3599,1 51814U 22017AY  23033.31494500  .00002008  00000-0  14422-3 0  9994,2 51814  53.2153   8.0709 0001473  90.7245 269.3916 15.08843355 53282,6917.87,95.437,540.754,538.716,0.0
51814.0,STARLINK-3599,PAYLOAD,2023-02-03 07:24:18,15.08849869,0.0001625,53.2154,3.6071,105.4779,254.6392,0.00029518,4.414e-05,0.0,0 STARLINK-3599,1 51814U 22017AY  23034.30854211  .00004414  00000-0  29518-3 0  9998,2 51814  53.2154   3.6071 0001625 105.4779 254.6392 15.08849869 53552,6917.85,95.437,540.839,538.591,0.0
51814.0,STARLINK-3599,PAYLOAD,2023-02-04 04:04:19,15.08845142,0.0001513,53.2156,359.7419,89.5234,270.5932,0.00025055,3.702e-05,0.0,0 STARLINK-3599,1 51814U 22017AY  23035.16966694  .00003702  00000-0  25055-3 0  9993,2 51814  53.2156 359.7419 0001513  89.5234 270.5932 15.08845142 53680,6917.865,95.437,540.776,538.683,0.0
51814.0,STARLINK-3599,PAYLOAD,2023-02-04 07:15:05,15.08851454,0.0001431,53.2153,359.1467,85.2661,274.8495,0.00054021,8.323e-05,0.0,0 STARLINK-3599,1 51814U 22017AY  23035.30214544  .00008323  00000-0  54021-3 0  9998,2 51814  53.2153 359.1467 0001431  85.2661 274.8495 15.08851454 53583,6917.845,95.437,540.7,538.72,0.0
51814.0,STARLINK-3599,PAYLOAD,2023-02-04 21:33:33,15.08838998,0.0001381,53.2149,356.4716,90.4723,269.6428,0.00054932,8.465e-05,0.0,0 STARLINK-3599,1 51814U 22017AY  23035.89830887  .00008465  00000-0  54932-3 0  9994,2 51814  53.2149 356.4716 0001381  90.4723 269.6428 15.08838998 53672,6917.883,95.438,540.704,538.793,0.0
51814.0,STARLINK-3599,PAYLOAD,2023-02-05 03:55:06,15.08845033,0.0001346,53.2147,355.2824,84.6703,275.4443,0.00048348,7.416e-05,0.0,0 STARLINK-3599,1 51814U 22017AY  23036.16326781  .00007416  00000-0  48348-3 0  9997,2 51814  53.2147 355.2824 0001346  84.6703 275.4443 15.08845033 53839,6917.865,95.437,540.661,538.799,0.0
51814.0,STARLINK-3599,PAYLOAD,2023-02-05 07:05:52,15.08850916,0.0001367,53.2149,354.6875,83.9455,276.1693,0.00073792,0.00011479,0.0,0 STARLINK-3599,1 51814U 22017AY  23036.29574732  .00011479  00000-0  73792-3 0  9997,2 51814  53.2149 354.6875 0001367  83.9455 276.1693 15.08850916 53739,6917.847,95.437,540.658,538.766,0.0
51814.0,STARLINK-3599,PAYLOAD,2023-02-05 21:24:19,15.08872399,0.0001344,53.2149,352.0112,87.4889,272.6257,0.0010307,0.00016168,0.0,0 STARLINK-3599,1 51814U 22017AY  23036.89189755  .00016168  00000-0  10307-2 0  9992,2 51814  53.2149 352.0112 0001344  87.4889 272.6257 15.08872399 53826,6917.781,95.436,540.576,538.717,0.0
51814.0,STARLINK-3599,PAYLOAD,2023-02-06 03:45:51,15.08891254,0.0001339,53.2151,350.8225,88.2968,271.8177,0.0013767,0.00021721,0.0,0 STARLINK-3599,1 51814U 22017AY  23037.15684836  .00021721  00000-0  13767-2 0  9996,2 51814  53.2151 350.8225 0001339  88.2968 271.8177 15.08891254 53981,6917.724,95.434,540.515,538.662,0.0
51814.0,STARLINK-3599,PAYLOAD,2023-02-06 05:21:14,15.08899315,0.0001409,53.2152,350.5249,88.4894,271.6259,0.0017098,0.00027073,0.0,0 STARLINK-3599,1 51814U 22017AY  23037.22308581  .00027073  00000-0  17098-2 0  9991,2 51814  53.2152 350.5249 0001409  88.4894 271.6259 15.08899315 53876,6917.699,95.434,540.539,538.589,0.0
51814.0,STARLINK-3599,PAYLOAD,2023-02-06 21:15:06,15.08851012,0.0002819,53.2161,347.5525,101.265,258.8659,0.0012821,0.00020182,0.0,0 STARLINK-3599,1 51814U 22017AY  23037.88549048  .00020182  00000-0  12821-2 0  9991,2 51814  53.2161 347.5525 0002819 101.2650 258.8659 15.08851012 53973,6917.847,95.437,541.662,537.762,0.0
51814.0,STARLINK-3599,PAYLOAD,2023-02-07 02:01:16,15.08821367,0.0001094,53.2149,346.6595,75.1193,284.992,0.0010894,0.00017083,0.0,0 STARLINK-3599,1 51814U 22017AY  23038.08421918  .00017083  00000-0  10894-2 0  9993,2 51814  53.2149 346.6595 0001094  75.1193 284.9920 15.08821367 54120,6917.937,95.439,540.559,539.046,0.0
51814.0,STARLINK-3599,PAYLOAD,2023-02-07 06:47:26,15.088276,0.0001328,53.2149,345.7677,94.7918,265.3226,0.002064,0.00032702,0.0,0 STARLINK-3599,1 51814U 22017AY  23038.28294125  .00032702  00000-0  20640-2 0  9998,2 51814  53.2149 345.7677 0001328  94.7918 265.3226 15.08827600 54031,6917.918,95.438,540.702,538.865,0.0
51814.0,STARLINK-3599,PAYLOAD,2023-02-08 03:27:27,15.08851402,0.0001484,53.2158,341.9008,93.1626,266.9536,0.0012419,0.00019538,0.0,0 STARLINK-3599,1 51814U 22017AY  23039.14406484  .00019538  00000-0  12419-2 0  9994,2 51814  53.2158 341.9008 0001484  93.1626 266.9536 15.08851402 54284,6917.846,95.437,540.737,538.684,0.0
